298P/Christensen,e,7.8704,52.8223,100.6821,3.592147,0.1447681,0.38668020,26.8781,03/11.0/2021,2000,g 15.0,4.0
# From MPC101100
299P/Catalina-PANSTARRS,e,10.4754,271.6256,323.8963,4.384849,0.1073426,0.28159439,236.9017,03/11.0/2021,2000,g 11.5,4.0
# From MPC114609
300P/Catalina,e,5.6755,95.6620,222.8838,2.700019,0.2221538,0.69177778,190.9608,03/11.0/2021,2000,g 16.0,4.0
# From MPC 89014
301P/LINEAR-NEAT,e,10.3410,351.1765,193.7072,5.738617,0.0716957,0.58535205,171.1001,03/11.0/2021,2000,g 13.0,4.0
# From MPEC 2020-HN5
302P/Lemmon-PANSTARRS,e,6.0343,121.7551,208.2280,4.276475,0.1114487,0.23008567,197.6038,03/11.0/2021,2000,g 12.5,4.0
# From MPC 92278
303P/NEAT,e,7.0204,347.9707,356.8759,5.047901,0.0869036,0.51052710,203.0834,03/11.0/2021,2000,g 13.5,4.0
# From MPEC 2020-N08
304P/Ory,e,2.6067,58.9336,335.2316,3.150414,0.1762596,0.60049751,37.1184,03/11.0/2021,2000,g 16.5,4.0
# From MPC101100
305P/Skiff,e,11.6476,240.1201,147.2813,4.644209,0.0984774,0.69316598,227.2789,03/11.0/2021,2000,g 18.0,4.0
# From MPC 92278
306P/LINEAR,e,8.3109,341.3753,0.8334,3.122807,0.1786020,0.59329945,73.7787,03/11.0/2021,2000,g 19.0,4.0
# From MPC 92278
307P/LINEAR,e,4.4337,158.1479,222.1355,5.793306,0.0706829,0.67456464,160.6045,03/11.0/2021,2000,g 15.0,4.0
# From MPC109148
308P/Lagerkvist-Carsenty,e,4.8505,63.0889,333.5937,6.604891,0.0580638,0.36325107,124.0279,03/11.0/2021,2000,g 13.0,2.0
# From MPC 94284
309P/LINEAR,e,17.0233,10.1410,49.9623,4.371567,0.1078322,0.61762896,239.7815,03/11.0/2021,2000,g 15.0,4.0
# From MPC 98566
310P/Hill,e,13.1279,8.9252,31.8337,4.178231,0.1154025,0.42180511,249.4607,03/11.0/2021,2000,g 13.5,4.0
# From MPEC 2021-BE3
311P/PANSTARRS,e,4.9697,279.2275,144.5849,2.188833,0.3043583,0.11548104,47.0410,03/11.0/2021,2000,g 17.0,4.0
# From MPEC 2021-BE3
312P/NEAT,e,19.7684,144.6696,207.5375,3.466218,0.1527286,0.42781734,25.5044,03/11.0/2021,2000,g 16.0,4.0
# From MPEC 2021-BE3
313P/Gibbs,e,10.9831,105.9732,254.6695,3.162172,0.1752774,0.23496447,57.7722,03/11.0/2021,2000,g 15.0,4.0
# From MPC105243
314P/Montani,e,3.9797,267.6159,214.1552,7.270875,0.0502718,0.41603193,81.1805,03/11.0/2021,2000,g  9.5,4.0
# From MPC115888
315P/LONEOS,e,17.7701,68.9647,65.6859,4.939161,0.0897893,0.52167546,140.2946,03/11.0/2021,2000,g 11.0,4.0
# From MPC 92279
316P/LONEOS-Christensen,e,9.8530,246.6740,193.4656,4.358608,0.1083134,0.15793724,213.7742,03/11.0/2021,2000,g 13.5,4.0
# From MPEC 2020-C98
317P/WISE,e,11.9500,275.5146,334.9010,2.965286,0.1930208,0.57050248,32.0072,03/11.0/2021,2000,g 17.5,4.0
# From MPC102103
318P/McNaught-Hartley,e,17.8764,35.6014,313.1576,7.497752,0.0480073,0.67517100,94.3114,03/11.0/2021,2000,g  8.5,6.0
# From MPC 97499
319P/Catalina-McNaught,e,15.0950,111.3769,203.6452,3.567735,0.1462565,0.66660965,303.6295,03/11.0/2021,2000,g 15.0,4.0
# From MPC 96281
320P/McNaught,e,4.9089,295.9298,0.7748,3.093894,0.1811115,0.68574544,9.5735,03/11.0/2021,2000,g 20.5,4.0
# From MPC105243
321P/SOHO,e,20.0710,165.0271,172.7370,2.423343,0.2612652,0.98109723,0.0000,01/17.2901/2020,2000,g 20.0,4.0
# From MPC102103
322P/SOHO,e,11.4634,351.4944,56.9066,2.508041,0.2481430,0.97979712,0.0000,08/31.4471/2019,2000,g 19.0,4.0
# From MPEC 2016-Y36
323P/SOHO,e,5.3387,324.3750,353.0534,2.582121,0.2375413,0.98484286,0.0000,01/17.7619/2021,2000,g 20.0,4.0
# From MPC108598
324P/La Sagra,e,21.4078,270.6306,57.7076,3.097852,0.1807645,0.15471687,349.8548,03/11.0/2021,2000,g 13.0,4.0
# From MPC114609
325P/Yang-Gao,e,16.6958,257.5723,343.6886,3.523922,0.1489926,0.59358026,302.9155,03/11.0/2021,2000,g 14.0,4.0
# From MPC103849
326P/Hill,e,2.4708,99.8122,278.5870,4.063793,0.1203114,0.31760162,236.6918,03/11.0/2021,2000,g 13.5,4.0
# From MPC 97499
327P/Van Ness,e,36.2490,173.9797,185.0293,3.562436,0.1465830,0.56297362,280.7723,03/11.0/2021,2000,g 16.0,4.0
# From MPC109148
328P/LONEOS-Tucker,e,17.6717,341.6299,30.4822,4.195040,0.1147097,0.55199017,218.3012,03/11.0/2021,2000,g 14.5,4.0
# From MPC101101
329P/LINEAR-Catalina,e,21.6692,87.6787,343.5361,5.191903,0.0833133,0.67703871,160.6422,03/11.0/2021,2000,g 13.5,4.0
# From MPC105243
330P/Catalina,e,15.6942,293.0959,188.9752,6.630167,0.0577321,0.54838608,95.6886,03/11.0/2021,2000,g 12.0,4.0
# From MPEC 2021-BE3
331P/Gibbs,e,9.7388,216.7766,183.8382,3.003960,0.1893053,0.04085375,30.6536,03/11.0/2021,2000,g 12.0,4.0
# From MPEC 2016-K18
332P/Ikeya-Murakami,e,9.3799,3.7884,152.3480,3.089017,0.1815405,0.48945935,330.8751,03/11.0/2021,2000,g 18.0,4.0
# From MPEC 2016-EI8
332P-B/Ikeya-Murakami,e,9.3805,3.8028,152.3711,3.082329,0.1821317,0.48970701,359.9699,03/17.0/2016,2000,g 19.0,4.0
# From MPEC 2016-K18
332P-C/Ikeya-Murakami,e,9.3789,3.7888,152.3393,3.088983,0.1815435,0.48946481,330.8887,03/11.0/2021,2000,g 16.5,4.0
# From MPEC 2016-ED0
332P-D/Ikeya-Murakami,e,9.3761,3.7923,152.4393,3.081138,0.1822373,0.48977814,359.9486,03/17.0/2016,2000,g 19.0,4.0
# From MPEC 2016-ED0
332P-E/Ikeya-Murakami,e,9.3774,3.8228,152.2825,3.079877,0.1823493,0.48922008,359.9889,03/17.0/2016,2000,g 21.0,4.0
# From MPEC 2016-ED0
332P-F/Ikeya-Murakami,e,9.5293,3.4757,152.8203,3.163214,0.1751908,0.49918860,359.8501,03/17.0/2016,2000,g 21.0,4.0
# From MPEC 2016-ED0
332P-G/Ikeya-Murakami,e,9.2523,3.6955,154.4000,3.050519,0.1849880,0.49200362,359.9006,03/19.0/2016,2000,g 19.0,4.0
# From MPC100285
332P-H/Ikeya-Murakami,e,9.3795,3.7885,152.3400,3.089167,0.1815273,0.48949993,330.8263,03/11.0/2021,2000,g 19.0,4.0
# From MPEC 2016-ED0
332P-I/Ikeya-Murakami,e,9.3791,3.8048,152.3297,3.081767,0.1821815,0.48955490,359.9360,03/17.0/2016,2000,g 20.5,2.0
# From MPEC 2016-EI8
332P-J/Ikeya-Murakami,e,9.4296,3.6729,152.7712,3.115165,0.1792596,0.49429435,359.8613,03/17.0/2016,2000,g 20.5,2.0
# From MPEC 2020-L06
333P/LINEAR,e,131.9798,115.6252,26.0140,4.218983,0.1137345,0.73677192,205.3660,03/11.0/2021,2000,g 15.0,4.0
# From MPC115888
334P/NEAT,e,20.4428,90.6912,90.0365,6.838457,0.0551146,0.35205166,75.6485,03/11.0/2021,2000,g 10.5,4.0
# From MPC100285
335P/Gibbs,e,7.2932,330.8470,162.2537,3.578289,0.1456099,0.54569436,284.4124,03/11.0/2021,2000,g 17.0,4.0
# From MPC105244
336P/McNaught,e,17.8339,298.2283,308.7548,5.031876,0.0873191,0.44523355,130.7439,03/11.0/2021,2000,g 13.5,4.0
# From MPC115888
337P/WISE,e,15.3726,106.0705,160.9959,3.287336,0.1653628,0.49682622,281.1123,03/11.0/2021,2000,g 17.0,4.0
# From MPC104796
338P/McNaught,e,25.3773,9.7888,4.3982,3.897434,0.1280961,0.41134796,201.0092,03/11.0/2021,2000,g 12.0,4.0
# From MPC101101
339P/Gibbs,e,5.7342,172.7361,27.5196,3.696346,0.1386900,0.63563569,234.7488,03/11.0/2021,2000,g 17.0,4.0
# From MPC102957
340P/Boattini,e,2.0794,291.7243,35.8292,4.251294,0.1124404,0.28074480,176.7112,03/11.0/2021,2000,g 13.0,4.0
# From MPEC 2021-BE3
341P/Gibbs,e,3.7954,29.9836,312.1412,4.293704,0.1107786,0.41539810,193.5293,03/11.0/2021,2000,g 12.5,4.0
# From MPC101101
342P/SOHO,e,11.6694,27.9128,73.0815,3.043400,0.1856374,0.98282794,0.0000,10/19.2779/2021,2000,g  9.0,4.0
# From MPC109148
343P/NEAT-LONEOS,e,5.5840,257.2144,137.3720,5.460736,0.0772373,0.58409868,116.0707,03/11.0/2021,2000,g 14.0,4.0
# From MPC109148
344P/Read,e,3.4907,273.1791,140.3848,4.866151,0.0918175,0.42180963,146.1120,03/11.0/2021,2000,g 13.0,4.0
# From MPC109148
345P/LINEAR,e,2.7270,154.5035,196.3788,4.039140,0.1214145,0.22092578,206.0974,03/11.0/2021,2000,g 12.0,4.0
# From MPC110086
346P/Catalina,e,22.1862,102.4671,335.9868,4.475981,0.1040810,0.50232993,154.7142,03/11.0/2021,2000,g 14.0,4.0
# From MPC108599
347P/PANSTARRS,e,11.7489,261.0347,98.3216,3.606404,0.1439105,0.38566261,236.0718,03/11.0/2021,2000,g 15.0,4.0
# From MPEC 2020-SI8
348P/PANSTARRS,e,17.7406,312.9421,135.5927,3.150939,0.1762155,0.30670171,300.3774,03/11.0/2021,2000,g 14.0,4.0
# From MPC112394
349P/Lemmon,e,5.4909,331.7441,256.0506,3.572873,0.1459411,0.29910215,188.7547,03/11.0/2021,2000,g 14.0,4.0
# From MPC111775
350P/McNaught,e,7.3569,65.3482,140.3313,4.092717,0.1190382,0.09131886,140.6015,03/11.0/2021,2000,g 14.0,4.0
# From MPC105244
351P/Wiegert-PANSTARRS,e,12.7889,283.4492,352.6566,4.437374,0.1054423,0.29594358,204.4487,03/11.0/2021,2000,g 12.5,4.0
# From MPC110086
352P/Skiff,e,21.0089,28.0735,309.1748,6.636952,0.0576436,0.61821463,78.2534,03/11.0/2021,2000,g 11.5,4.0
# From MPEC 2020-AA5
353P/McNaught,e,28.4249,121.5625,230.3790,4.171314,0.1156897,0.47007030,135.9661,03/11.0/2021,2000,g 14.5,4.0
# From MPC105545
354P/LINEAR,e,5.2556,320.1294,132.9844,2.289705,0.2844689,0.12566345,90.3774,03/11.0/2021,2000,g 15.5,4.0
# From MPEC 2020-AA5
355P/LINEAR-NEAT,e,11.0383,51.4344,336.2499,3.472053,0.1523437,0.50707845,189.6738,03/11.0/2021,2000,g 15.5,2.0
# From MPC109148
356P/WISE,e,9.6366,160.7927,226.0047,4.160011,0.1161615,0.35489727,137.0396,03/11.0/2021,2000,g 14.0,4.0
# From MPC114609
357P/Hill,e,6.3109,44.5732,1.4028,4.460993,0.1046060,0.43469230,106.3938,03/11.0/2021,2000,g 15.5,4.0
# From MPEC 2020-HN5
358P/PANSTARRS,e,11.0576,85.7098,299.7273,3.147916,0.1764694,0.23833199,187.8347,03/11.0/2021,2000,g 18.0,4.0
# From MPC110086
359P/LONEOS,e,10.2666,149.7562,200.1471,4.639572,0.0986250,0.32404950,127.9718,03/11.0/2021,2000,g 13.5,4.0
# From MPC108599
360P/WISE,e,24.1025,2.1906,354.1219,3.702455,0.1383469,0.49882243,179.8033,03/11.0/2021,2000,g 19.5,6.0
# From MPC114609
361P/Spacewatch,e,13.8907,203.2510,219.0695,4.939260,0.0897866,0.43795902,88.2464,03/11.0/2021,2000,g 12.0,4.0
# From MPEC 2017-V13
362P/,e,15.5570,192.5739,53.7003,3.968519,0.1246698,0.27958117,207.0113,03/11.0/2021,2000,g 12.9,2.0
# From MPC114609
363P/Lemmon,e,5.3751,147.0340,341.2086,3.542792,0.1478038,0.52912821,162.3179,03/11.0/2021,2000,g 17.5,4.0
# From MPC114609
364P/PANSTARRS,e,12.1417,46.1967,212.0008,2.879148,0.2017475,0.72228657,199.8634,03/11.0/2021,2000,g 17.0,2.0
# From MPC111775
365P/PANSTARRS,e,9.8298,87.3171,66.2714,3.176774,0.1740702,0.57653103,195.4870,03/11.0/2021,2000,g 17.0,4.0
# From MPC114610
366P/Spacewatch,e,8.8591,70.7572,153.1503,3.495652,0.1508036,0.34833814,145.4023,03/11.0/2021,2000,g 15.0,4.0
# From MPC112395
